NORAD_CAT_ID,OBJECT_NAME,OBJECT_TYPE,EPOCH,MEAN_MOTION,ECCENTRICITY,INCLINATION,RA_OF_ASC_NODE,ARG_OF_PERICENTER,MEAN_ANOMALY,BSTAR,MEAN_MOTION_DOT,MEAN_MOTION_DDOT,TLE_LINE0,TLE_LINE1,TLE_LINE2,SEMIMAJOR_AXIS,PERIOD,APOGEE,PERIGEE,DECAYED
52265.0,STARLINK-3740,PAYLOAD,2024-02-07 22:29:46,15.08831048,0.0001249,53.217,284.2699,97.1262,262.9872,6.2002e-05,6.99e-06,0.0,0 STARLINK-3740,1 52265U 22041E   24038.93734827  .00000699  00000-0  62002-4 0  9997,2 52265  53.2170 284.2699 0001249  97.1262 262.9872 15.08831048 99511,6917.908,95.438,540.637,538.909,0.0
52265.0,STARLINK-3740,PAYLOAD,2024-02-08 20:45:10,15.08824632,0.0001582,53.2165,280.1072,118.8783,241.2368,0.00023132,3.394e-05,0.0,0 STARLINK-3740,1 52265U 22041E   24039.86470693  .00003394  00000-0  23132-3 0  9993,2 52265  53.2165 280.1072 0001582 118.8783 241.2368 15.08824632 99650,6917.927,95.439,540.887,538.698,0.0
52265.0,STARLINK-3740,PAYLOAD,2024-02-09 01:31:19,15.08846848,0.0001405,53.2157,279.2137,116.4564,243.6572,1.7077e-05,-1.6e-07,0.0,0 STARLINK-3740,1 52265U 22041E   24040.06342131 -.00000016  00000-0  17077-4 0  9993,2 52265  53.2157 279.2137 0001405 116.4564 243.6572 15.08846848100904,6917.859,95.437,540.696,538.752,0.0
52265.0,STARLINK-3740,PAYLOAD,2024-02-09 19:00:34,15.08838545,0.0001417,53.2152,275.9437,107.1285,252.9863,9.8184e-05,1.275e-05,0.0,0 STARLINK-3740,1 52265U 22041E   24040.79206459  .00001275  00000-0  98184-4 0  9990,2 52265  53.2152 275.9437 0001417 107.1285 252.9863 15.08838545101019,6917.885,95.438,540.73,538.77,0.0
52265.0,STARLINK-3740,PAYLOAD,2024-02-10 01:22:06,15.08844299,0.0001485,53.2167,274.7552,106.1673,253.9483,7.51e-05,9.08e-06,0.0,0 STARLINK-3740,1 52265U 22041E   24041.05702193  .00000908  00000-0  75100-4 0  9991,2 52265  53.2167 274.7552 0001485 106.1673 253.9483 15.08844299 99833,6917.867,95.437,540.76,538.705,0.0
52265.0,STARLINK-3740,PAYLOAD,2024-02-10 20:26:44,15.08847764,0.0001585,53.2173,271.1856,122.7287,237.3858,-8.7098e-05,-1.674e-05,0.0,0 STARLINK-3740,1 52265U 22041E   24041.85190615 -.00001674  00000-0 -87098-4 0  9991,2 52265  53.2173 271.1856 0001585 122.7287 237.3858 15.08847764101177,6917.857,95.437,540.818,538.625,0.0
52265.0,STARLINK-3740,PAYLOAD,2024-02-11 13:55:59,15.08834411,0.000165,53.2159,267.9125,129.0825,231.0314,1.6387e-05,-2.7e-07,0.0,0 STARLINK-3740,1 52265U 22041E   24042.58055088 -.00000027  00000-0  16387-4 0  9999,2 52265  53.2159 267.9125 0001650 129.0825 231.0314 15.08834411100064,6917.897,95.438,540.904,538.621,0.0
52265.0,STARLINK-3740,PAYLOAD,2024-02-11 21:52:54,15.08842009,0.0001154,53.217,266.4299,102.1439,257.9683,2.6347e-05,1.32e-06,0.0,0 STARLINK-3740,1 52265U 22041E   24042.91174709  .00000132  00000-0  26347-4 0  9991,2 52265  53.2170 266.4299 0001154 102.1439 257.9683 15.08842009100119,6917.874,95.437,540.538,538.941,0.0
52265.0,STARLINK-3740,PAYLOAD,2024-02-12 20:08:19,15.08833006,0.0001279,53.2169,262.2672,104.1474,255.966,2.9408e-05,1.8e-06,0.0,0 STARLINK-3740,1 52265U 22041E   24043.83911598  .00000180  00000-0  29408-4 0  9992,2 52265  53.2169 262.2672 0001279 104.1474 255.9660 15.08833006101475,6917.902,95.438,540.652,538.882,0.0
52265.0,STARLINK-3740,PAYLOAD,2024-02-13 13:37:34,15.08826848,0.0001783,53.2177,258.9981,108.3158,251.8028,0.0001262,1.72e-05,0.0,0 STARLINK-3740,1 52265U 22041E   24044.56775995  .00001720  00000-0  12620-3 0  9990,2 52265  53.2177 258.9981 0001783 108.3158 251.8028 15.08826848100360,6917.921,95.438,541.019,538.552,0.0
52265.0,STARLINK-3740,PAYLOAD,2024-02-13 19:59:06,15.08840327,6.97e-05,53.2165,257.8099,52.3436,307.7619,0.00015405,2.165e-05,0.0,0 STARLINK-3740,1 52265U 22041E   24044.83271152  .00002165  00000-0  15405-3 0  9994,2 52265  53.2165 257.8099 0000697  52.3436 307.7619 15.08840327101620,6917.879,95.438,540.227,539.262,0.0
52265.0,STARLINK-3740,PAYLOAD,2024-02-13 21:34:28,15.08855796,0.0001273,53.2169,257.5086,75.1119,285.0015,0.00018711,2.692e-05,0.0,0 STARLINK-3740,1 52265U 22041E   24044.89894154  .00002692  00000-0  18711-3 0  9991,2 52265  53.2169 257.5086 0001273  75.1119 285.0015 15.08855796100419,6917.832,95.437,540.578,538.816,0.0
52265.0,STARLINK-3740,PAYLOAD,2024-02-14 07:06:47,15.08847248,0.0001139,53.2166,255.7249,91.7573,268.3549,0.00014874,2.081e-05,0.0,0 STARLINK-3740,1 52265U 22041E   24045.29638474  .00002081  00000-0  14874-3 0  9995,2 52265  53.2166 255.7249 0001139  91.7573 268.3549 15.08847248101696,6917.858,95.437,540.511,538.935,0.0
52265.0,STARLINK-3740,PAYLOAD,2024-02-14 21:25:15,15.08845396,0.0001209,53.2167,253.0506,92.619,267.4941,0.00011214,1.498e-05,0.0,0 STARLINK-3740,1 52265U 22041E   24045.89254572  .00001498  00000-0  11214-3 0  9990,2 52265  53.2167 253.0506 0001209  92.6190 267.4941 15.08845396100560,6917.864,95.437,540.565,538.893,0.0
52265.0,STARLINK-3740,PAYLOAD,2024-02-15 06:57:34,15.08851823,0.0001298,53.217,251.2611,86.7691,273.345,0.00014372,2.001e-05,0.0,0 STARLINK-3740,1 52265U 22041E   24046.28997814  .00002001  00000-0  14372-3 0  9996,2 52265  53.2170 251.2611 0001298  86.7691 273.3450 15.08851823100629,6917.844,95.437,540.607,538.811,0.0
52265.0,STARLINK-3740,PAYLOAD,2024-02-15 19:40:40,15.08840347,0.0001405,53.2165,248.8828,89.042,271.0733,-0.00017789,-3.118e-05,0.0,0 STARLINK-3740,1 52265U 22041E   24046.81991703 -.00003118  00000-0 -17789-3 0  9993,2 52265  53.2165 248.8828 0001405  89.0420 271.0733 15.08840347101923,6917.879,95.438,540.716,538.772,0.0
52265.0,STARLINK-3740,PAYLOAD,2024-02-16 13:09:54,15.08838891,9.3e-05,53.2172,245.6123,100.8445,259.2652,1.8727e-05,1e-07,0.0,0 STARLINK-3740,1 52265U 22041E   24047.54854862  .00000010  00000-0  18727-4 0  9998,2 52265  53.2172 245.6123 0000930 100.8445 259.2652 15.08838891100811,6917.884,95.438,540.392,539.105,0.0
52265.0,STARLINK-3740,PAYLOAD,2024-02-16 19:31:26,15.08893278,0.0001165,53.2161,244.4239,92.7699,267.3427,-0.00057703,-9.473e-05,0.0,0 STARLINK-3740,1 52265U 22041E   24047.81349950 -.00009473  00000-0 -57703-3 0  9995,2 52265  53.2161 244.4239 0001165  92.7699 267.3427 15.08893278102075,6917.718,95.434,540.388,538.777,0.0
52265.0,STARLINK-3740,PAYLOAD,2024-02-16 22:42:12,15.08882758,0.0001153,53.2161,243.8287,107.5274,252.5845,-0.00041984,-6.971e-05,0.0,0 STARLINK-3740,1 52265U 22041E   24047.94597590 -.00006971  00000-0 -41984-3 0  9998,2 52265  53.2161 243.8287 0001153 107.5274 252.5845 15.08882758100879,6917.75,95.435,540.412,538.817,0.0
52265.0,STARLINK-3740,PAYLOAD,2024-02-17 19:22:14,15.08831893,0.0001617,53.2162,239.9623,95.2212,264.8965,0.00015927,2.247e-05,0.0,0 STARLINK-3740,1 52265U 22041E   24048.80711497  .00002247  00000-0  15927-3 0  9996,2 52265  53.2162 239.9623 0001617  95.2212 264.8965 15.08831893102224,6917.905,95.438,540.889,538.652,0.0
52265.0,STARLINK-3740,PAYLOAD,2024-02-17 22:33:00,15.08835894,0.0001527,53.2167,239.3684,91.7019,268.4148,0.00012805,1.75e-05,0.0,0 STARLINK-3740,1 52265U 22041E   24048.93959395  .00001750  00000-0  12805-3 0  9991,2 52265  53.2167 239.3684 0001527  91.7019 268.4148 15.08835894101021,6917.893,95.438,540.814,538.702,0.0
52265.0,STARLINK-3740,PAYLOAD,2024-02-18 12:51:27,15.08856094,0.0001496,53.2166,236.6932,90.4215,269.6948,0.00019209,2.772e-05,0.0,0 STARLINK-3740,1 52265U 22041E   24049.53573856  .00002772  00000-0  19209-3 0  9992,2 52265  53.2166 236.6932 0001496  90.4215 269.6948 15.08856094101111,6917.831,95.437,540.731,538.661,0.0
52265.0,STARLINK-3740,PAYLOAD,2024-02-18 19:12:59,15.088708,0.0001529,53.2159,235.5031,93.2974,266.8193,0.00045425,6.955e-05,0.0,0 STARLINK-3740,1 52265U 22041E   24049.80069322  .00006955  00000-0  45425-3 0  9996,2 52265  53.2159 235.5031 0001529  93.2974 266.8193 15.08870800102372,6917.786,95.436,540.709,538.594,0.0
52265.0,STARLINK-3740,PAYLOAD,2024-02-19 04:45:18,15.08858422,0.0001618,53.2157,233.7159,80.7789,279.3386,0.00022358,3.274e-05,0.0,0 STARLINK-3740,1 52265U 22041E   24050.19813584  .00003274  00000-0  22358-3 0  9998,2 52265  53.2157 233.7159 0001618  80.7789 279.3386 15.08858422102431,6917.824,95.436,540.808,538.57,0.0
52265.0,STARLINK-3740,PAYLOAD,2024-02-19 19:03:48,15.08828192,0.0001537,53.2157,231.0431,82.4695,277.6472,-0.00039177,-6.516e-05,0.0,0 STARLINK-3740,1 52265U 22041E   24050.79430651 -.00006516  00000-0 -39177-3 0  9995,2 52265  53.2157 231.0431 0001537  82.4695 277.6472 15.08828192102528,6917.916,95.438,540.845,538.718,0.0
52265.0,STARLINK-3740,PAYLOAD,2024-02-20 10:57:40,15.08825535,0.0001555,53.2149,228.0689,78.8557,281.261,0.00024557,3.621e-05,0.0,0 STARLINK-3740,1 52265U 22041E   24051.45671488  .00003621  00000-0  24557-3 0  9992,2 52265  53.2149 228.0689 0001555  78.8557 281.2610 15.08825535101405,6917.925,95.438,540.865,538.714,0.0
52265.0,STARLINK-3740,PAYLOAD,2024-02-20 18:54:36,15.08833313,0.0001577,53.2152,226.5826,76.2549,283.8619,0.00083677,0.00013052,0.0,0 STARLINK-3740,1 52265U 22041E   24051.78791926  .00013052  00000-0  83677-3 0  9995,2 52265  53.2152 226.5826 0001577  76.2549 283.8619 15.08833313101457,6917.901,95.438,540.857,538.675,0.0
52265.0,STARLINK-3740,PAYLOAD,2024-02-21 04:26:55,15.08839025,0.0001594,53.2152,224.799,82.2356,277.8817,0.00066581,0.00010324,0.0,0 STARLINK-3740,1 52265U 22041E   24052.18536011  .00010324  00000-0  66581-3 0  9996,2 52265  53.2152 224.7990 0001594  82.2356 277.8817 15.08839025101517,6917.883,95.438,540.851,538.646,0.0
52265.0,STARLINK-3740,PAYLOAD,2024-02-21 18:45:23,15.08847693,0.0001582,53.2148,222.1225,81.8444,278.2727,0.00054474,8.394e-05,0.0,0 STARLINK-3740,1 52265U 22041E   24052.78151847  .00008394  00000-0  54474-3 0  9994,2 52265  53.2148 222.1225 0001582  81.8444 278.2727 15.08847693102825,6917.857,95.437,540.816,538.627,0.0
52265.0,STARLINK-3740,PAYLOAD,2024-02-22 04:17:41,15.08845522,0.0001584,53.2149,220.3384,82.5598,277.5574,0.00031316,4.7e-05,0.0,0 STARLINK-3740,1 52265U 22041E   24053.17895820  .00004700  00000-0  31316-3 0  9991,2 52265  53.2149 220.3384 0001584  82.5598 277.5574 15.08845522102889,6917.864,95.437,540.824,538.633,0.0
